[{"OBJECT_NAME":"NUSAT-50 (NANCY ROMAN)","OBJECT_ID":"2024-149AB","EPOCH":"2026-03-09T19:15:16.765632","MEAN_MOTION":15.29713355,"ECCENTRICITY":0.00025229,"INCLINATION":97.3817,"RA_OF_ASC_NODE":150.7693,"ARG_OF_PERICENTER":238.0469,"MEAN_ANOMALY":122.0527,"EPHEMERIS_TYPE":0,"CLASSIFICATION_TYPE":"U","NORAD_CAT_ID":60493,"ELEMENT_SET_NO":999,"REV_AT_EPOCH":8693,"BSTAR":0.0004225155,"MEAN_MOTION_DOT":0.00012094,"MEAN_MOTION_DDOT":0},{"OBJECT_NAME":"STARLINK-36063","OBJECT_ID":"2025-270U","EPOCH":"2026-03-09T00:11:02.414112","MEAN_MOTION":15.27597926,"ECCENTRICITY":5.016e-5,"INCLINATION":42.9991,"RA_OF_ASC_NODE":59.8441,"ARG_OF_PERICENTER":247.3094,"MEAN_ANOMALY":112.7705,"EPHEMERIS_TYPE":0,"CLASSIFICATION_TYPE":"U","NORAD_CAT_ID":66606,"ELEMENT_SET_NO":999,"REV_AT_EPOCH":1760,"BSTAR":0.00082352276,"MEAN_MOTION_DOT":0.00022481,"MEAN_MOTION_DDOT":0}]
