NUSAT-50 (NANCY ROMAN)  
1 60493U 24149AB  26068.80227738  .00012094  00000+0  42252-3 0  9994
2 60493  97.3817 150.7693 0002523 238.0469 122.0527 15.29713355 86930
STARLINK-36063          
1 66606U 25270U   26068.00766683  .00022481  00000+0  82352-3 0  9997
2 66606  42.9991  59.8441 0000501 247.3094 112.7705 15.27597926 17606
